QIANFAN-132             
1 69078U 26104F   26154.87212668  .00000108  00000+0  45678-4 0  9993
2 69078  88.9863 343.1401 0004843 137.6404 222.5160 14.18146694  3199
QIANFAN-133             
1 69079U 26104G   26154.85766959  .00000110  00000+0  45580-4 0  9994
2 69079  88.9863 343.1379 0004364 147.7549 212.3909 14.19028472  3196
QIANFAN-134             
1 69080U 26104H   26154.85257691  .00000112  00000+0  46375-4 0  9999
2 69080  88.9862 343.1371 0005306 132.1647 227.9995 14.19323944  3192
QIANFAN-135             
1 69081U 26104J   26154.84818663  .00000105  00000+0  42892-4 0  9993
2 69081  88.9863 343.1366 0004168 160.0847 200.0506 14.19621409  3192
QIANFAN-136             
1 69082U 26104K   26154.84454369  .00000114  00000+0  46944-4 0  9995
2 69082  88.9862 343.1358 0004629 147.9937 212.1535 14.19913721  3196
QIANFAN-137             
1 69083U 26104L   26154.86471549  .00000129  00000+0  48897-4 0  9992
2 69083  88.9862 343.1200 0005341 141.5127 218.6448 14.25196102  3205
QIANFAN-138             
1 69084U 26104M   26154.83407990  .00000115  00000+0  46489-4 0  9999
2 69084  88.9863 343.1343 0004178 149.6778 210.4655 14.20801281  3197
QIANFAN-139             
1 69085U 26104N   26154.82972561  .00000129  00000+0  52592-4 0  9997
2 69085  88.9863 343.1336 0004151 139.7578 220.3921 14.21102007  3196
QIANFAN-140             
1 69086U 26104P   26154.82567297  .00000116  00000+0  46373-4 0  9990
2 69086  88.9863 343.1330 0004179 144.3367 215.8104 14.21391629  3191
QIANFAN-141             
1 69087U 26104Q   26154.82193360  .00000111  00000+0  44222-4 0  9993
2 69087  88.9862 343.1324 0003808 140.0392 220.1079 14.21633015  3191
QIANFAN-142             
1 69088U 26104R   26154.81734929  .00000118  00000+0  46668-4 0  9998
2 69088  88.9862 343.1316 0005060 132.0983 228.0639 14.21951816  3193
QIANFAN-143             
1 69089U 26104S   26154.87694144  .00000118  00000+0  45961-4 0  9994
2 69089  88.9862 343.1219 0004353 133.6937 226.4616 14.23170407  3206
QIANFAN-144             
1 69090U 26104T   26154.88176695  .00000116  00000+0  45315-4 0  9994
2 69090  88.9862 343.1227 0003762 124.5489 235.6058 14.22581173  3208
ZHUQUE-2E R/B           
1 69095U 26105A   26154.92797245  .00192353 -78821-6  47356-3 0  9990
2 69095  88.9715 196.0713 0464444 349.0426  10.0954 15.13269183  3146
2026-106A               
1 69097U 26106A   26154.77048861  .00007975  00000+0  47981-3 0  9994
2 69097  97.5095 237.0979 0013793 206.6730 153.3792 15.11022505  2950
2026-106B               
1 69098U 26106B   26154.77503644  .00005409  00000+0  34002-3 0  9990
2 69098  97.5076 237.0874 0014198 202.6781 157.3822 15.09567421  2952
2026-106C               
1 69099U 26106C   26154.76997645  .00007825  00000+0  47041-3 0  9999
2 69099  97.5099 237.0996 0013580 207.4843 152.5671 15.11063491  2959
2026-106D               
1 69100U 26106D   26154.76833032  .00007272  00000+0  43598-3 0  9990
2 69100  97.5075 237.0959 0013228 210.1175 149.9296 15.11188780  2955
2026-106E               
1 69101U 26106E   26152.57989091  .00009485  00000+0  56369-3 0  9993
2 69101  97.5078 234.9552 0015007 220.2305 139.7815 15.11402667  2629
DRAGON CRS-34           
1 69103U 26107A   26154.70949191  .00008646  00000+0  16154-3 0  9996
2 69103  51.6330   6.8180 0007089 128.9940 231.1681 15.49585865569344
QIANFAN-145             
1 69104U 26108A   26154.91576169  .00000340  00000+0  16469-3 0  9994
2 69104  89.0121  23.6987 0015265 155.1940 204.9985 14.16074900  2463
QIANFAN-146             
1 69105U 26108B   26154.86372503  .00000388  00000+0  16460-3 0  9998
2 69105  89.0124  23.6914 0015563 153.9825 206.2153 14.23382357  2464
QIANFAN-147             
1 69106U 26108C   26154.90439463  .00000335  00000+0  15923-3 0  9998
2 69106  89.0120  23.6968 0015274 152.2619 207.9387 14.17031643  2461
QIANFAN-148             
1 69107U 26108D   26154.89914281  .00000322  00000+0  15167-3 0  9999
2 69107  89.0121  23.6963 0015749 157.3359 202.8529 14.17400738  2469
QIANFAN-149             
1 69108U 26108E   26154.89736063  .00000330  00000+0  15472-3 0  9998
2 69108  89.0124  23.6963 0015397 156.5876 203.6018 14.17855255  2467
QIANFAN-150             
1 69109U 26108F   26154.88997524  .00000323  00000+0  14996-3 0  9991
2 69109  89.0124  23.6954 0015415 158.3772 201.8072 14.18303773  2468
QIANFAN-151             
1 69110U 26108G   26154.88544653  .00000344  00000+0  15827-3 0  9991
2 69110  89.0124  23.6945 0015530 156.9184 203.2706 14.18799331  2468
QIANFAN-152             
1 69111U 26108H   26154.88200965  .00000344  00000+0  15662-3 0  9994
2 69111  89.0122  23.6939 0014748 156.8179 203.3680 14.19416682  2461
