OBJECT_NAME,OBJECT_ID,EPOCH,MEAN_MOTION,ECCENTRICITY,INCLINATION,RA_OF_ASC_NODE,ARG_OF_PERICENTER,MEAN_ANOMALY,EPHEMERIS_TYPE,CLASSIFICATION_TYPE,NORAD_CAT_ID,ELEMENT_SET_NO,REV_AT_EPOCH,BSTAR,MEAN_MOTION_DOT,MEAN_MOTION_DDOT
QIANFAN-132,2026-104F,2026-06-03T20:55:51.745152,14.18146694,.00048437,88.9863,343.1401,137.6404,222.5160,0,U,69078,999,319,.45678081E-4,.108E-5,0
QIANFAN-133,2026-104G,2026-06-03T20:35:02.652576,14.19028472,.00043642,88.9863,343.1379,147.7549,212.3909,0,U,69079,999,319,.4557956E-4,.11E-5,0
QIANFAN-134,2026-104H,2026-06-03T20:27:42.645024,14.19323944,.00053068,88.9862,343.1371,132.1647,227.9995,0,U,69080,999,319,.46374764E-4,.112E-5,0
QIANFAN-135,2026-104J,2026-06-03T20:21:23.324832,14.19621409,.00041682,88.9863,343.1366,160.0847,200.0506,0,U,69081,999,319,.42891704E-4,.105E-5,0
QIANFAN-136,2026-104K,2026-06-03T20:16:08.574816,14.19913721,.0004629,88.9862,343.1358,147.9937,212.1535,0,U,69082,999,319,.46943832E-4,.114E-5,0
QIANFAN-137,2026-104L,2026-06-03T20:45:11.418336,14.25196102,.00053419,88.9862,343.1200,141.5127,218.6448,0,U,69083,999,320,.48897058E-4,.129E-5,0
QIANFAN-138,2026-104M,2026-06-03T20:01:04.503360,14.20801281,.00041785,88.9863,343.1343,149.6778,210.4655,0,U,69084,999,319,.46488956E-4,.115E-5,0
QIANFAN-139,2026-104N,2026-06-03T19:54:48.292704,14.21102007,.00041513,88.9863,343.1336,139.7578,220.3921,0,U,69085,999,319,.52591689E-4,.129E-5,0
QIANFAN-140,2026-104P,2026-06-03T19:48:58.144608,14.21391629,.00041794,88.9863,343.1330,144.3367,215.8104,0,U,69086,999,319,.46372965E-4,.116E-5,0
QIANFAN-141,2026-104Q,2026-06-03T19:43:35.063040,14.21633015,.00038089,88.9862,343.1324,140.0392,220.1079,0,U,69087,999,319,.44222286E-4,.111E-5,0
QIANFAN-142,2026-104R,2026-06-03T19:36:58.978656,14.21951816,.000506,88.9862,343.1316,132.0983,228.0639,0,U,69088,999,319,.4666844E-4,.118E-5,0
QIANFAN-143,2026-104S,2026-06-03T21:02:47.740416,14.23170407,.00043537,88.9862,343.1219,133.6937,226.4616,0,U,69089,999,320,.45961E-4,.118E-5,0
QIANFAN-144,2026-104T,2026-06-03T21:09:44.664480,14.22581173,.00037622,88.9862,343.1227,124.5489,235.6058,0,U,69090,999,320,.45314987E-4,.116E-5,0
ZHUQUE-2E R/B,2026-105A,2026-06-03T22:16:16.819680,15.13269183,.04644445,88.9715,196.0713,349.0426,10.0954,0,U,69095,999,314,.47356231E-3,.192353E-2,-.788211E-6
2026-106A,2026-106A,2026-06-03T18:29:30.215904,15.11022505,.00137936,97.5095,237.0979,206.6730,153.3792,0,U,69097,999,295,.47981051E-3,.7975E-4,0
2026-106B,2026-106B,2026-06-03T18:36:03.148416,15.09567421,.00141984,97.5076,237.0874,202.6781,157.3822,0,U,69098,999,295,.34002022E-3,.5409E-4,0
2026-106C,2026-106C,2026-06-03T18:28:45.965280,15.11063491,.00135804,97.5099,237.0996,207.4843,152.5671,0,U,69099,999,295,.47040928E-3,.7825E-4,0
2026-106D,2026-106D,2026-06-03T18:26:23.739648,15.11188780,.00132281,97.5075,237.0959,210.1175,149.9296,0,U,69100,999,295,.43598028E-3,.7272E-4,0
2026-106E,2026-106E,2026-06-01T13:55:02.574624,15.11402667,.00150074,97.5078,234.9552,220.2305,139.7815,0,U,69101,999,262,.5636941E-3,.9485E-4,0
DRAGON CRS-34,2026-107A,2026-06-03T17:01:40.101024,15.49585865,.00070894,51.6330,6.8180,128.9940,231.1681,0,U,69103,999,56934,.16154302E-3,.8646E-4,0
QIANFAN-145,2026-108A,2026-06-03T21:58:41.810016,14.16074900,.00152655,89.0121,23.6987,155.1940,204.9985,0,U,69104,999,246,.16468949E-3,.34E-5,0
QIANFAN-146,2026-108B,2026-06-03T20:43:45.842592,14.23382357,.00155632,89.0124,23.6914,153.9825,206.2153,0,U,69105,999,246,.1645951E-3,.388E-5,0
QIANFAN-147,2026-108C,2026-06-03T21:42:19.696032,14.17031643,.00152748,89.0120,23.6968,152.2619,207.9387,0,U,69106,999,246,.15922522E-3,.335E-5,0
QIANFAN-148,2026-108D,2026-06-03T21:34:45.938784,14.17400738,.00157498,89.0121,23.6963,157.3359,202.8529,0,U,69107,999,246,.15167408E-3,.322E-5,0
QIANFAN-149,2026-108E,2026-06-03T21:32:11.958432,14.17855255,.00153974,89.0124,23.6963,156.5876,203.6018,0,U,69108,999,246,.1547233E-3,.33E-5,0
QIANFAN-150,2026-108F,2026-06-03T21:21:33.860736,14.18303773,.00154159,89.0124,23.6954,158.3772,201.8072,0,U,69109,999,246,.14996131E-3,.323E-5,0
QIANFAN-151,2026-108G,2026-06-03T21:15:02.580192,14.18799331,.001553,89.0124,23.6945,156.9184,203.2706,0,U,69110,999,246,.15827256E-3,.344E-5,0
QIANFAN-152,2026-108H,2026-06-03T21:10:05.633760,14.19416682,.00147487,89.0122,23.6939,156.8179,203.3680,0,U,69111,999,246,.15661901E-3,.344E-5,0
